ONEWEB-0597             
1 54663U 22166X   24214.91526500 -.00000011  00000+0 -58175-4 0  9995
2 54663  87.9296  20.1949 0002137  87.8952 272.2427 13.21826969 81141
ONEWEB-0600             
1 54664U 22166Y   24214.89791684  .00000039  00000+0  61920-4 0  9990
2 54664  87.9290  20.2360 0001997  89.0450 271.0913 13.21827468 81113
ONEWEB-0601             
1 54665U 22166Z   24214.89004081  .00000080  00000+0  16224-3 0  9991
2 54665  87.9298  20.2053 0002366  93.7922 266.3483 13.21826613 81309
ONEWEB-0602             
1 54666U 22166AA  24214.93104386  .00000064  00000+0  12403-3 0  9993
2 54666  87.9297  20.2005 0002181  89.6666 270.4717 13.21825738 81156
ONEWEB-0603             
1 54667U 22166AB  24214.93577559 -.00000011  00000+0 -58702-4 0  9997
2 54667  87.9299  20.2021 0002234  89.4078 270.7312 13.21825753 81084
ONEWEB-0606             
1 54670U 22166AE  24214.93892607  .00000049  00000+0  86671-4 0  9990
2 54670  87.9297  20.2030 0001668  94.2223 265.9102 13.21826420 81177
